{
    "crs": {
        "properties": {
            "name": "urn:ogc:def:crs:OGC:1.3:CRS84"
        },
        "type": "name"
    },
    "features": [
        {
            "geometry": {
                "coordinates": [
                    5.22309285574719,
                    52.3565363874106
                ],
                "type": "Point"
            },
            "properties": {
                "naam": "Hogeschool Aeres",
                "adres": "Arboretum West 98, 1325 WB Almere"
            },
            "type": "Feature"
        }
    ],
    "name": "Aeres",
    "type": "FeatureCollection"
}